OBJECT_NAME,OBJECT_ID,EPOCH,MEAN_MOTION,ECCENTRICITY,INCLINATION,RA_OF_ASC_NODE,ARG_OF_PERICENTER,MEAN_ANOMALY,EPHEMERIS_TYPE,CLASSIFICATION_TYPE,NORAD_CAT_ID,ELEMENT_SET_NO,REV_AT_EPOCH,BSTAR,MEAN_MOTION_DOT,MEAN_MOTION_DDOT
ONEWEB-0068,2020-020Y,2026-06-17T14:40:00.145056,13.11414695,.0001731,87.8894,20.9792,79.6350,280.4973,0,U,45446,999,30265,-.13482E-2,-.465E-5,0
ONEWEB-0046,2020-020Z,2026-06-17T14:27:59.579424,13.11413938,.0001975,87.8886,20.9870,78.8977,281.2373,0,U,45447,999,30266,-.60517E-3,-.202E-5,0
ONEWEB-0063,2020-020AA,2026-06-17T15:09:41.230080,13.11419007,.0002152,87.8896,20.9801,85.1706,274.9668,0,U,45448,999,30275,-.10296E-2,-.352E-5,0
ONEWEB-0019,2020-020AB,2026-06-17T12:25:44.103648,13.11414347,.00017154,87.8888,20.9891,89.8570,270.2754,0,U,45449,999,30258,.33738117E-3,.132E-5,0
ONEWEB-0094,2020-020AC,2026-06-17T12:09:37.025856,13.17647408,.00016337,87.9140,5.7855,86.5188,273.6130,0,U,45450,999,30635,-.80263998E-4,-.18E-6,0
ONEWEB-0087,2020-020AD,2026-06-17T15:23:57.440256,13.11419444,.0001669,87.8905,20.9522,76.9476,283.1838,0,U,45451,999,30264,.76122E-3,.282E-5,0
ONEWEB-0082,2020-020AE,2026-06-17T15:19:04.995264,13.11420095,.0001841,87.8896,20.9694,70.3220,289.8106,0,U,45452,999,30273,.24699E-3,.1E-5,0
ONEWEB-0050,2020-020AF,2026-06-17T14:41:57.789024,14.90382413,.000309,88.9297,233.1531,25.3062,334.8318,0,U,45453,999,34044,.18264E-3,.1798E-4,0
ONEWEB-0034,2020-020AG,2026-06-17T16:13:11.102016,13.11413657,.0001838,87.8892,20.9714,85.3404,274.7934,0,U,45454,999,30265,.21277E-3,.88E-6,0
ONEWEB-0060,2020-020AH,2026-06-17T15:08:16.268640,13.11417788,.0001256,87.8887,20.9784,52.6879,307.4363,0,U,45455,999,30260,-.11144E-2,-.382E-5,0
ONEWEB-0086,2020-020AJ,2026-06-17T14:37:33.786048,13.11414602,.0001026,87.8893,20.9778,85.1071,275.0174,0,U,45456,999,30266,-.12789E-2,-.441E-5,0
ONEWEB-0088,2020-020AK,2026-06-17T15:55:53.880384,13.11416727,.0002166,87.8903,20.9400,79.4668,280.6704,0,U,45457,999,30260,.12099E-2,.442E-5,0
ONEWEB-0102,2020-100A,2026-06-17T12:21:48.473568,13.12440815,.00016095,87.8939,350.6099,98.2237,261.9074,0,U,47258,999,26477,-.23355603E-3,-.71E-6,0
ONEWEB-0109,2020-100B,2026-06-17T12:34:00.148512,13.12440760,.00018268,87.8948,350.5914,96.0843,264.0494,0,U,47259,999,26460,-.93230798E-3,-.323E-5,0
ONEWEB-0110,2020-100C,2026-06-17T13:13:01.910784,13.12445343,.0001567,87.8949,350.5707,90.1700,269.9608,0,U,47260,999,26477,-.11942E-3,-.3E-6,0
ONEWEB-0111,2020-100D,2026-06-17T12:07:10.515648,13.12440759,.00017563,87.8949,350.5982,88.3867,271.7463,0,U,47261,999,26460,.72378792E-3,.273E-5,0
ONEWEB-0114,2020-100E,2026-06-17T12:51:05.366592,13.12433294,.0002151,87.8953,350.5903,95.4520,264.6854,0,U,47262,999,26456,-.41737E-2,-.1488E-4,0
ONEWEB-0117,2020-100F,2026-06-17T12:38:53.009952,13.12442818,.00017769,87.8946,350.5820,91.1062,269.0270,0,U,47263,999,26457,-.10328654E-2,-.359E-5,0
ONEWEB-0118,2020-100G,2026-06-17T11:37:54.221376,13.12443530,.00021441,87.8946,350.5935,91.6289,268.5086,0,U,47264,999,26476,.67987031E-3,.257E-5,0
ONEWEB-0119,2020-100H,2026-06-17T12:14:29.909760,13.12442515,.00018119,87.8938,350.6050,91.2257,268.9079,0,U,47265,999,26474,.28231352E-3,.114E-5,0
ONEWEB-0120,2020-100J,2026-06-17T12:48:50.371776,13.12444222,.0001879,87.8938,350.6014,96.9461,263.1881,0,U,47266,999,26477,-.10254E-2,-.356E-5,0
ONEWEB-0121,2020-100K,2026-06-17T12:31:33.757536,13.12442877,.00016985,87.8948,350.5898,81.3223,278.8098,0,U,47267,999,26468,-.60169433E-3,-.204E-5,0
ONEWEB-0122,2020-100L,2026-06-17T12:23:02.616000,13.12441865,.00017202,87.8950,350.5955,95.8647,264.2678,0,U,47268,999,26459,-.19722299E-3,-.58E-6,0
ONEWEB-0123,2020-100M,2026-06-17T12:16:55.848864,13.12443355,.00019176,87.8937,350.6037,90.5942,269.5406,0,U,47269,999,26473,.1651679E-3,.72E-6,0
ONEWEB-0124,2020-100N,2026-06-17T12:02:17.814912,13.12443705,.00017767,87.8937,350.6088,87.6221,272.5111,0,U,47270,999,26461,.96062523E-3,.358E-5,0
ONEWEB-0125,2020-100P,2026-06-17T13:20:20.861664,13.12445467,.0001959,87.8948,350.5815,82.2658,277.8693,0,U,47271,999,26468,.1611E-3,.71E-6,0
ONEWEB-0126,2020-100Q,2026-06-17T12:00:04.416768,13.12442602,.00018836,87.8942,350.6081,94.8612,265.2731,0,U,47272,999,26474,.10397481E-2,.387E-5,0
ONEWEB-0127,2020-100R,2026-06-17T13:00:49.855680,13.12443469,.0001933,87.8938,350.5986,98.5961,261.5386,0,U,47273,999,26477,-.13328E-2,-.467E-5,0
ONEWEB-0128,2020-100S,2026-06-17T11:42:46.648224,13.12444070,.0001502,87.8936,350.6232,89.0857,271.0443,0,U,47274,999,26478,.97935085E-3,.365E-5,0
ONEWEB-0129,2020-100T,2026-06-17T13:03:16.830720,13.12444306,.0002442,87.8948,350.5860,117.0623,243.0755,0,U,47275,999,26472,-.76052E-3,-.261E-5,0
